{"type": "FeatureCollection", "features": [{"type": "Feature", "properties": {"norad_id": 2807, "name": "OPS 7218 (TRANSIT 16)", "group": "nnss", "lat": -87.68575674297277, "lon": -178.34888482565046, "alt_km": 1093.2072388593988, "timestamp": "2025-12-27T02:10:16.457885+00:00", "meta": {"OBJECT_NAME": "OPS 7218 (TRANSIT 16)", "OBJECT_ID": "1967-048A", "EPOCH": "2025-12-26T18:35:31.647840", "MEAN_MOTION": 13.50725123, "ECCENTRICITY": 0.0022129, "INCLINATION": 89.6735, "RA_OF_ASC_NODE": 353.5505, "ARG_OF_PERICENTER": 76.737, "MEAN_ANOMALY": 96.338, "EPHEMERIS_TYPE": 0, "CLASSIFICATION_TYPE": "U", "NORAD_CAT_ID": 2807, "ELEMENT_SET_NO": 999, "REV_AT_EPOCH": 88465, "BSTAR": 0.00015499, "MEAN_MOTION_DOT": 1.1e-06, "MEAN_MOTION_DDOT": 0}, "tle": {"line1": "1 02807U 67048A   25360.77467185  .00000110  00000+0  15499-3 0  9995", "line2": "2 02807  89.6735 353.5505 0022129  76.7370  96.3380 13.50725123884658"}}, "geometry": {"type": "Point", "coordinates": [-178.34888482565046, -87.68575674297277]}}, {"type": "Feature", "properties": {"norad_id": 2965, "name": "OPS 4947 (TRANSIT 17)", "group": "nnss", "lat": 67.2784635315738, "lon": -158.45553549067637, "alt_km": 1046.4733586961374, "timestamp": "2025-12-27T02:10:16.457907+00:00", "meta": {"OBJECT_NAME": "OPS 4947 (TRANSIT 17)", "OBJECT_ID": "1967-092A", "EPOCH": "2025-12-26T19:22:23.966976", "MEAN_MOTION": 13.53457282, "ECCENTRICITY": 0.0047257, "INCLINATION": 89.2486, "RA_OF_ASC_NODE": 23.3619, "ARG_OF_PERICENTER": 192.8806, "MEAN_ANOMALY": 341.0406, "EPHEMERIS_TYPE": 0, "CLASSIFICATION_TYPE": "U", "NORAD_CAT_ID": 2965, "ELEMENT_SET_NO": 999, "REV_AT_EPOCH": 87287, "BSTAR": 0.00019112, "MEAN_MOTION_DOT": 1.41e-06, "MEAN_MOTION_DDOT": 0}, "tle": {"line1": "1 02965U 67092A   25360.80722184  .00000141  00000+0  19112-3 0  9996", "line2": "2 02965  89.2486  23.3619 0047257 192.8806 341.0406 13.53457282872874"}}, "geometry": {"type": "Point", "coordinates": [-158.45553549067637, 67.2784635315738]}}, {"type": "Feature", "properties": {"norad_id": 3133, "name": "OPS 7034 (TRANSIT 18)", "group": "nnss", "lat": 14.425772794925807, "lon": 93.6872538748723, "alt_km": 1022.8892127605795, "timestamp": "2025-12-27T02:10:16.457921+00:00", "meta": {"OBJECT_NAME": "OPS 7034 (TRANSIT 18)", "OBJECT_ID": "1968-012A", "EPOCH": "2025-12-26T18:31:16.182048", "MEAN_MOTION": 13.51569067, "ECCENTRICITY": 0.0075098, "INCLINATION": 90.0285, "RA_OF_ASC_NODE": 273.679, "ARG_OF_PERICENTER": 128.8758, "MEAN_ANOMALY": 286.0505, "EPHEMERIS_TYPE": 0, "CLASSIFICATION_TYPE": "U", "NORAD_CAT_ID": 3133, "ELEMENT_SET_NO": 999, "REV_AT_EPOCH": 57108, "BSTAR": 0.0002064, "MEAN_MOTION_DOT": 1.47e-06, "MEAN_MOTION_DDOT": 0}, "tle": {"line1": "1 03133U 68012A   25360.77171507  .00000147  00000+0  20640-3 0  9994", "line2": "2 03133  90.0285 273.6790 0075098 128.8758 286.0505 13.51569067571088"}}, "geometry": {"type": "Point", "coordinates": [93.6872538748723, 14.425772794925807]}}, {"type": "Feature", "properties": {"norad_id": 4507, "name": "NNSS 19 (TRANSIT 19)", "group": "nnss", "lat": 58.01232061745289, "lon": 54.55078801662548, "alt_km": 1141.1465904544448, "timestamp": "2025-12-27T02:10:16.457934+00:00", "meta": {"OBJECT_NAME": "NNSS 19 (TRANSIT 19)", "OBJECT_ID": "1970-067A", "EPOCH": "2025-12-26T14:53:26.024640", "MEAN_MOTION": 13.51317911, "ECCENTRICITY": 0.0170229, "INCLINATION": 90.0046, "RA_OF_ASC_NODE": 234.5432, "ARG_OF_PERICENTER": 252.7431, "MEAN_ANOMALY": 105.5031, "EPHEMERIS_TYPE": 0, "CLASSIFICATION_TYPE": "U", "NORAD_CAT_ID": 4507, "ELEMENT_SET_NO": 999, "REV_AT_EPOCH": 72409, "BSTAR": 0.00012342, "MEAN_MOTION_DOT": 9.5e-07, "MEAN_MOTION_DDOT": 0}, "tle": {"line1": "1 04507U 70067A   25360.62044010  .00000095  00000+0  12342-3 0  9997", "line2": "2 04507  90.0046 234.5432 0170229 252.7431 105.5031 13.51317911724094"}}, "geometry": {"type": "Point", "coordinates": [54.55078801662548, 58.01232061745289]}}, {"type": "Feature", "properties": {"norad_id": 6909, "name": "NNSS 20 (TRANSIT 20)", "group": "nnss", "lat": 24.16091519090087, "lon": 74.77445098209466, "alt_km": 1049.9947928614738, "timestamp": "2025-12-27T02:10:16.457945+00:00", "meta": {"OBJECT_NAME": "NNSS 20 (TRANSIT 20)", "OBJECT_ID": "1973-081A", "EPOCH": "2025-12-26T04:24:52.750368", "MEAN_MOTION": 13.7144138, "ECCENTRICITY": 0.0156059, "INCLINATION": 89.8559, "RA_OF_ASC_NODE": 254.8528, "ARG_OF_PERICENTER": 38.4618, "MEAN_ANOMALY": 322.7546, "EPHEMERIS_TYPE": 0, "CLASSIFICATION_TYPE": "U", "NORAD_CAT_ID": 6909, "ELEMENT_SET_NO": 999, "REV_AT_EPOCH": 80545, "BSTAR": 0.00027705, "MEAN_MOTION_DOT": 2.83e-06, "MEAN_MOTION_DDOT": 0}, "tle": {"line1": "1 06909U 73081A   25360.18394387  .00000283  00000+0  27705-3 0  9998", "line2": "2 06909  89.8559 254.8528 0156059  38.4618 322.7546 13.71441380805453"}}, "geometry": {"type": "Point", "coordinates": [74.77445098209466, 24.16091519090087]}}, {"type": "Feature", "properties": {"norad_id": 10457, "name": "TRANSAT", "group": "nnss", "lat": 5.803696803329713, "lon": 78.12434705301214, "alt_km": 1094.146364822489, "timestamp": "2025-12-27T02:10:16.457956+00:00", "meta": {"OBJECT_NAME": "TRANSAT", "OBJECT_ID": "1977-106A", "EPOCH": "2025-12-26T17:50:28.291200", "MEAN_MOTION": 13.48945799, "ECCENTRICITY": 0.0026631, "INCLINATION": 89.6474, "RA_OF_ASC_NODE": 78.1008, "ARG_OF_PERICENTER": 149.9348, "MEAN_ANOMALY": 331.6501, "EPHEMERIS_TYPE": 0, "CLASSIFICATION_TYPE": "U", "NORAD_CAT_ID": 10457, "ELEMENT_SET_NO": 999, "REV_AT_EPOCH": 36932, "BSTAR": 0.00012372, "MEAN_MOTION_DOT": 8.8e-07, "MEAN_MOTION_DDOT": 0}, "tle": {"line1": "1 10457U 77106A   25360.74338300  .00000088  00000+0  12372-3 0  9995", "line2": "2 10457  89.6474  78.1008 0026631 149.9348 331.6501 13.48945799369328"}}, "geometry": {"type": "Point", "coordinates": [78.12434705301214, 5.803696803329713]}}, {"type": "Feature", "properties": {"norad_id": 12458, "name": "NOVA 1", "group": "nnss", "lat": 23.268089660680932, "lon": 91.24569984527372, "alt_km": 1163.380928581595, "timestamp": "2025-12-27T02:10:16.457966+00:00", "meta": {"OBJECT_NAME": "NOVA 1", "OBJECT_ID": "1981-044A", "EPOCH": "2025-12-26T19:24:00.790272", "MEAN_MOTION": 13.23280067, "ECCENTRICITY": 0.0015672, "INCLINATION": 89.8524, "RA_OF_ASC_NODE": 91.1862, "ARG_OF_PERICENTER": 69.399, "MEAN_ANOMALY": 50.8821, "EPHEMERIS_TYPE": 0, "CLASSIFICATION_TYPE": "U", "NORAD_CAT_ID": 12458, "ELEMENT_SET_NO": 999, "REV_AT_EPOCH": 15372, "BSTAR": 0.00010692, "MEAN_MOTION_DOT": 5.4e-07, "MEAN_MOTION_DDOT": 0}, "tle": {"line1": "1 12458U 81044A   25360.80834248  .00000054  00000+0  10692-3 0  9999", "line2": "2 12458  89.8524  91.1862 0015672  69.3990  50.8821 13.23280067153726"}}, "geometry": {"type": "Point", "coordinates": [91.24569984527372, 23.268089660680932]}}, {"type": "Feature", "properties": {"norad_id": 15362, "name": "NOVA 3", "group": "nnss", "lat": -63.92119921016706, "lon": -99.54542923245812, "alt_km": 1164.9013141912465, "timestamp": "2025-12-27T02:10:16.457977+00:00", "meta": {"OBJECT_NAME": "NOVA 3", "OBJECT_ID": "1984-110A", "EPOCH": "2025-12-26T12:17:22.808256", "MEAN_MOTION": 13.23046399, "ECCENTRICITY": 0.0029843, "INCLINATION": 90.1217, "RA_OF_ASC_NODE": 80.6966, "ARG_OF_PERICENTER": 292.1662, "MEAN_ANOMALY": 78.6503, "EPHEMERIS_TYPE": 0, "CLASSIFICATION_TYPE": "U", "NORAD_CAT_ID": 15362, "ELEMENT_SET_NO": 999, "REV_AT_EPOCH": 98881, "BSTAR": 0.00016272, "MEAN_MOTION_DOT": 7.7e-07, "MEAN_MOTION_DDOT": 0}, "tle": {"line1": "1 15362U 84110A   25360.51206954  .00000077  00000+0  16272-3 0  9993", "line2": "2 15362  90.1217  80.6966 0029843 292.1662  78.6503 13.23046399988811"}}, "geometry": {"type": "Point", "coordinates": [-99.54542923245812, -63.92119921016706]}}, {"type": "Feature", "properties": {"norad_id": 15935, "name": "OSCAR 30", "group": "nnss", "lat": -84.2219075391911, "lon": 101.71638126838646, "alt_km": 1207.9807236540046, "timestamp": "2025-12-27T02:10:16.457988+00:00", "meta": {"OBJECT_NAME": "OSCAR 30", "OBJECT_ID": "1985-066A", "EPOCH": "2025-12-26T18:09:23.815296", "MEAN_MOTION": 13.36080704, "ECCENTRICITY": 0.0168744, "INCLINATION": 90.1653, "RA_OF_ASC_NODE": 100.0762, "ARG_OF_PERICENTER": 44.7156, "MEAN_ANOMALY": 67.3239, "EPHEMERIS_TYPE": 0, "CLASSIFICATION_TYPE": "U", "NORAD_CAT_ID": 15935, "ELEMENT_SET_NO": 999, "REV_AT_EPOCH": 96640, "BSTAR": 0.00016878, "MEAN_MOTION_DOT": 1.03e-06, "MEAN_MOTION_DDOT": 0}, "tle": {"line1": "1 15935U 85066A   25360.75652564  .00000103  00000+0  16878-3 0  9990", "line2": "2 15935  90.1653 100.0762 0168744  44.7156  67.3239 13.36080704966409"}}, "geometry": {"type": "Point", "coordinates": [101.71638126838646, -84.2219075391911]}}, {"type": "Feature", "properties": {"norad_id": 15936, "name": "OSCAR 24", "group": "nnss", "lat": -16.587621395099767, "lon": 92.61270226648871, "alt_km": 1077.0356845533415, "timestamp": "2025-12-27T02:10:16.457998+00:00", "meta": {"OBJECT_NAME": "OSCAR 24", "OBJECT_ID": "1985-066B", "EPOCH": "2025-12-26T19:39:06.784128", "MEAN_MOTION": 13.35937892, "ECCENTRICITY": 0.0169927, "INCLINATION": 90.1792, "RA_OF_ASC_NODE": 92.5545, "ARG_OF_PERICENTER": 50.9961, "MEAN_ANOMALY": 68.6575, "EPHEMERIS_TYPE": 0, "CLASSIFICATION_TYPE": "U", "NORAD_CAT_ID": 15936, "ELEMENT_SET_NO": 999, "REV_AT_EPOCH": 96831, "BSTAR": 0.0001448, "MEAN_MOTION_DOT": 9e-07, "MEAN_MOTION_DDOT": 0}, "tle": {"line1": "1 15936U 85066B   25360.81882852  .00000090  00000+0  14480-3 0  9995", "line2": "2 15936  90.1792  92.5545 0169927  50.9961  68.6575 13.35937892968312"}}, "geometry": {"type": "Point", "coordinates": [92.61270226648871, -16.587621395099767]}}]}